[
    {
        "Altitude(m)": 612513.9484020248,
        "Argument of Periapsis(deg)": 0.0,
        "Eccentricity": 0.0,
        "Inclination(deg)": 60.0,
        "Latitude(deg)": -28.136017592022156,
        "Longitude(deg)": -32.08683895657942,
        "Mean Anomaly(deg)": -147.2727,
        "RAAN(deg)": 229.99999999999997,
        "Satellite Name": "Test1 1025",
        "Satellite Number": 1025,
        "Semi-Major Axis(m)": 6980739.136638005,
        "Time(s)": 0
    },
    {
        "Altitude(m)": 612708.3164042787,
        "Argument of Periapsis(deg)": 0.00010418945913296404,
        "Eccentricity": 0.0,
        "Inclination(deg)": 60.0,
        "Latitude(deg)": -28.64775620180577,
        "Longitude(deg)": -31.729607401528405,
        "Mean Anomaly(deg)": -146.65259385453814,
        "RAAN(deg)": 229.99957995086024,
        "Satellite Name": "Test1 1025",
        "Satellite Number": 1025,
        "Semi-Major Axis(m)": 6980739.136638005,
        "Time(s)": 10
    }
]